SL-3 R/B                
1 13403U 82079B   26087.23662557  .00006651  00000+0  26273-3 0  9996
2 13403  81.1485 171.1784 0025507 103.7667 256.6408 15.25044159380523
SL-14 R/B               
1 13553U 82092B   26087.15198966  .00000404  00000+0  42630-4 0  9992
2 13553  82.5659 124.1284 0019004 237.5194 179.9998 14.86682469331677
SL-3 R/B                
1 13819U 83010B   26087.26382520  .00016538  00000+0  32549-3 0  9993
2 13819  81.1057 339.4667 0016039 347.8137  12.2718 15.46973076360813
SL-3 R/B                
1 14208U 83075B   26087.22204228  .00012375  00000+0  32157-3 0  9991
2 14208  97.6141  92.5072 0022181 158.5424 201.6756 15.38843694333000
COSMOS 1536             
1 14699U 84013A   26087.23636227  .00007075  00000+0  28954-3 0  9998
2 14699  82.5415  89.4056 0013249 210.1146 149.9331 15.24069297275449
SL-14 R/B               
1 14820U 84027B   26087.14348272  .00000590  00000+0  64614-4 0  9998
2 14820  82.5416 227.7034 0016470 272.5852  87.3479 14.85995490250376
SL-8 R/B                
1 15483U 85006B   26087.11805248  .00000299  00000+0  10771-3 0  9990
2 15483  74.0450 227.2359 0017700 139.7979  33.0153 14.37796154156670
SL-12 R/B(2)            
1 15772U 85042D   26087.27351032  .00000055  00000+0  46279-4 0  9998
2 15772  71.1085  48.4634 0032845  97.3516   5.1811 14.21987641117039
SL-14 R/B               
1 15945U 85069B   26087.18996579  .00000543  00000+0  58444-4 0  9999
2 15945  82.5305   7.5416 0019992 128.0967 232.2056 14.86452951175586
SL-16 R/B               
1 16182U 85097B   26087.20691001 -.00000043  00000+0  23809-5 0  9993
2 16182  71.0008 101.5683 0009468 238.1697 194.3708 14.16603602 89854
SL-14 R/B               
1 16496U 86006B   26087.16227923  .00000998  00000+0  10340-3 0  9997
2 16496  82.5250 242.3471 0075750 210.5255 149.1544 14.86843628151956
COSMOS 1743             
1 16719U 86034A   26086.93202799  .00043051  00000+0  53018-3 0  9990
2 16719  82.5299  54.6624 0004094 173.9679 186.1627 15.60026052183096
